[{"OBJECT_NAME":"GCOM-C (SHIKISAI)","OBJECT_ID":"2017-082A","EPOCH":"2026-03-09T22:50:15.762048","MEAN_MOTION":14.27292109,"ECCENTRICITY":0.00011018,"INCLINATION":98.6348,"RA_OF_ASC_NODE":143.8758,"ARG_OF_PERICENTER":107.3468,"MEAN_ANOMALY":252.7834,"EPHEMERIS_TYPE":0,"CLASSIFICATION_TYPE":"U","NORAD_CAT_ID":43065,"ELEMENT_SET_NO":999,"REV_AT_EPOCH":42778,"BSTAR":9.0011429e-5,"MEAN_MOTION_DOT":1.76e-6,"MEAN_MOTION_DDOT":0},{"OBJECT_NAME":"CZ-6A DEB","OBJECT_ID":"2024-140PD","EPOCH":"2026-03-09T15:03:57.910176","MEAN_MOTION":14.36290929,"ECCENTRICITY":0.0066414,"INCLINATION":88.8954,"RA_OF_ASC_NODE":277.3125,"ARG_OF_PERICENTER":346.4257,"MEAN_ANOMALY":13.5153,"EPHEMERIS_TYPE":0,"CLASSIFICATION_TYPE":"U","NORAD_CAT_ID":61111,"ELEMENT_SET_NO":999,"REV_AT_EPOCH":7919,"BSTAR":0.00030191,"MEAN_MOTION_DOT":9.19e-6,"MEAN_MOTION_DDOT":0}]
